{
  "type": "FeatureCollection",
  "features": [
    {
      "type": "Feature",
      "properties": {
        "crop": "rice",
        "landuse": "farmland",
        "name": "Ahero Irrigation Scheme",
        "operator": "National Irrigation Authority",
        "website": "https://www.irrigation.go.ke/projects/ahero-irrigation-scheme/"
      },
      "geometry": {
        "type": "Polygon",
        "coordinates": [
          [
            [
              34.9059975,
              -0.1707684
            ],
            [
              34.906762,
              -0.1606747
            ],
            [
              34.9115753,
              -0.1607313
            ],
            [
              34.9119858,
              -0.1573054
            ],
            [
              34.9105019,
              -0.1570641
            ],
            [
              34.911094,
              -0.152846
            ],
            [
              34.9163461,
              -0.147608
            ],
            [
              34.9183705,
              -0.1467869
            ],
            [
              34.9269354,
              -0.1401191
            ],
            [
              34.9277423,
              -0.1388874
            ],
            [
              34.931324,
              -0.1387176
            ],
            [
              34.9336882,
              -0.138392
            ],
            [
              34.9339005,
              -0.1361552
            ],
            [
              34.9397614,
              -0.1348528
            ],
            [
              34.9423946,
              -0.1333522
            ],
            [
              34.9435271,
              -0.1332672
            ],
            [
              34.9436546,
              -0.1288645
            ],
            [
              34.945141,
              -0.1288503
            ],
            [
              34.9452684,
              -0.1275762
            ],
            [
              34.9536492,
              -0.1278452
            ],
            [
              34.9599207,
              -0.1258774
            ],
            [
              34.9621433,
              -0.1322338
            ],
            [
              34.9645783,
              -0.1320214
            ],
            [
              34.9655884,
              -0.1338747
            ],
            [
              34.9666732,
              -0.1353224
            ],
            [
              34.9700922,
              -0.1399812
            ],
            [
              34.9709635,
              -0.141703
            ],
            [
              34.9711299,
              -0.1419957
            ],
            [
              34.9712048,
              -0.142373
            ],
            [
              34.9701231,
              -0.1431852
            ],
            [
              34.9688635,
              -0.1440297
            ],
            [
              34.9680788,
              -0.1444273
            ],
            [
              34.967321,
              -0.144956
            ],
            [
              34.9666533,
              -0.1454289
            ],
            [
              34.966123,
              -0.1457155
            ],
            [
              34.9643355,
              -0.146954
            ],
            [
              34.9615148,
              -0.1434394
            ],
            [
              34.9592881,
              -0.1439277
            ],
            [
              34.9530875,
              -0.1451446
            ],
            [
              34.9475346,
              -0.1440463
            ],
            [
              34.9435649,
              -0.147222
            ],
            [
              34.933866,
              -0.1516208
            ],
            [
              34.9270854,
              -0.1542172
            ],
            [
              34.9189959,
              -0.1662334
            ],
            [
              34.9184165,
              -0.1696452
            ],
            [
              34.9149757,
              -0.1731007
            ],
            [
              34.9145016,
              -0.1727638
            ],
            [
              34.9059975,
              -0.1707684
            ]
          ]
        ]
      }
    }
  ]
}