{
  "type": "FeatureCollection",
  "features": [
    {
      "type": "Feature",
      "properties": {
        "crop": "Rice; soy bean; watermelon; vegetable; tomatoes",
        "landuse": "farmland",
        "name": "West Kano Irrigation scheme",
        "operator": "National Irrigation Authority",
        "website": "https://www.irrigationauthority.go.ke/projects/west-kano-irrigation-scheme/"
      },
      "geometry": {
        "type": "Polygon",
        "coordinates": [
          [
            [
              34.7908085,
              -0.1764043
            ],
            [
              34.7958342,
              -0.1758663
            ],
            [
              34.814977,
              -0.1804595
            ],
            [
              34.8151865,
              -0.1805097
            ],
            [
              34.8183718,
              -0.1812317
            ],
            [
              34.8232545,
              -0.1887844
            ],
            [
              34.8228029,
              -0.1890604
            ],
            [
              34.8240911,
              -0.191099
            ],
            [
              34.8244309,
              -0.1909291
            ],
            [
              34.8255658,
              -0.1926278
            ],
            [
              34.8235673,
              -0.1940719
            ],
            [
              34.8210474,
              -0.1955583
            ],
            [
              34.8235532,
              -0.1999044
            ],
            [
              34.822633,
              -0.200499
            ],
            [
              34.8187116,
              -0.1994797
            ],
            [
              34.8182585,
              -0.1994656
            ],
            [
              34.8178622,
              -0.1997062
            ],
            [
              34.8173667,
              -0.2005132
            ],
            [
              34.8174897,
              -0.2016588
            ],
            [
              34.8183676,
              -0.2033525
            ],
            [
              34.8200766,
              -0.2024105
            ],
            [
              34.8248335,
              -0.2101701
            ],
            [
              34.828415,
              -0.2078942
            ],
            [
              34.8350157,
              -0.2185012
            ],
            [
              34.8351334,
              -0.2186904
            ],
            [
              34.8366057,
              -0.219469
            ],
            [
              34.8399184,
              -0.2227392
            ],
            [
              34.8413351,
              -0.2252973
            ],
            [
              34.8350343,
              -0.2290389
            ],
            [
              34.8325359,
              -0.2266199
            ],
            [
              34.8339414,
              -0.2251984
            ],
            [
              34.831593,
              -0.2228987
            ],
            [
              34.8295698,
              -0.2247494
            ],
            [
              34.8293223,
              -0.2247257
            ],
            [
              34.8271687,
              -0.2245192
            ],
            [
              34.8270301,
              -0.2245059
            ],
            [
              34.8264695,
              -0.2244521
            ],
            [
              34.8205661,
              -0.2153635
            ],
            [
              34.8146769,
              -0.2157599
            ],
            [
              34.8144094,
              -0.2153552
            ],
            [
              34.8081399,
              -0.2051688
            ],
            [
              34.7990239,
              -0.1903993
            ],
            [
              34.7908085,
              -0.1764043
            ]
          ]
        ]
      }
    }
  ]
}